CCSDS_OMM_VERS = 2.0
CREATION_DATE  = 
ORIGINATOR     = 

OBJECT_NAME    = SL-14 R/B
OBJECT_ID      = 1991-042B
CENTER_NAME    = EARTH
REF_FRAME      = TEME
TIME_SYSTEM    = UTC
MEAN_ELEMENT_THEORY = SGP/SGP4

EPOCH          = 2026-01-17T04:00:48.581280
MEAN_MOTION    = 14.81775693
ECCENTRICITY   = .00183108
INCLINATION    = 82.4926
RA_OF_ASC_NODE = 268.5059
ARG_OF_PERICENTER = 53.4297
MEAN_ANOMALY   = 306.8599

EPHEMERIS_TYPE = 0
CLASSIFICATION_TYPE = U
NORAD_CAT_ID   = 21423
ELEMENT_SET_NO = 999
REV_AT_EPOCH   = 84544
BSTAR          = .41870851E-4
MEAN_MOTION_DOT = .355E-5
MEAN_MOTION_DDOT = 0

CCSDS_OMM_VERS = 2.0
CREATION_DATE  = 
ORIGINATOR     = 

OBJECT_NAME    = ERS-1
OBJECT_ID      = 1991-050A
CENTER_NAME    = EARTH
REF_FRAME      = TEME
TIME_SYSTEM    = UTC
MEAN_ELEMENT_THEORY = SGP/SGP4

EPOCH          = 2026-01-17T07:52:24.062592
MEAN_MOTION    = 14.39397470
ECCENTRICITY   = .00318746
INCLINATION    = 98.7897
RA_OF_ASC_NODE = 34.2725
ARG_OF_PERICENTER = 356.6314
MEAN_ANOMALY   = 3.4653

EPHEMERIS_TYPE = 0
CLASSIFICATION_TYPE = U
NORAD_CAT_ID   = 21574
ELEMENT_SET_NO = 999
REV_AT_EPOCH   = 80834
BSTAR          = .10258727E-3
MEAN_MOTION_DOT = .274E-5
MEAN_MOTION_DDOT = 0

CCSDS_OMM_VERS = 2.0
CREATION_DATE  = 
ORIGINATOR     = 

OBJECT_NAME    = ARIANE 40 R/B
OBJECT_ID      = 1991-050F
CENTER_NAME    = EARTH
REF_FRAME      = TEME
TIME_SYSTEM    = UTC
MEAN_ELEMENT_THEORY = SGP/SGP4

EPOCH          = 2026-01-17T03:42:14.180256
MEAN_MOTION    = 14.42845541
ECCENTRICITY   = .00024536
INCLINATION    = 98.2114
RA_OF_ASC_NODE = 71.2985
ARG_OF_PERICENTER = 210.6774
MEAN_ANOMALY   = 149.4273

EPHEMERIS_TYPE = 0
CLASSIFICATION_TYPE = U
NORAD_CAT_ID   = 21610
ELEMENT_SET_NO = 999
REV_AT_EPOCH   = 81156
BSTAR          = .86969905E-4
MEAN_MOTION_DOT = .248E-5
MEAN_MOTION_DDOT = 0

CCSDS_OMM_VERS = 2.0
CREATION_DATE  = 
ORIGINATOR     = 

OBJECT_NAME    = INTERCOSMOS 25
OBJECT_ID      = 1991-086A
CENTER_NAME    = EARTH
REF_FRAME      = TEME
TIME_SYSTEM    = UTC
MEAN_ELEMENT_THEORY = SGP/SGP4

EPOCH          = 2026-01-17T03:17:38.987520
MEAN_MOTION    = 12.11857607
ECCENTRICITY   = .14860188
INCLINATION    = 82.6087
RA_OF_ASC_NODE = 341.1645
ARG_OF_PERICENTER = 228.0402
MEAN_ANOMALY   = 118.4395

EPHEMERIS_TYPE = 0
CLASSIFICATION_TYPE = U
NORAD_CAT_ID   = 21819
ELEMENT_SET_NO = 999
REV_AT_EPOCH   = 49044
BSTAR          = .10510208E-3
MEAN_MOTION_DOT = .535E-5
MEAN_MOTION_DDOT = 0

CCSDS_OMM_VERS = 2.0
CREATION_DATE  = 
ORIGINATOR     = 

OBJECT_NAME    = SL-8 R/B
OBJECT_ID      = 1992-008B
CENTER_NAME    = EARTH
REF_FRAME      = TEME
TIME_SYSTEM    = UTC
MEAN_ELEMENT_THEORY = SGP/SGP4

EPOCH          = 2026-01-17T07:43:08.893344
MEAN_MOTION    = 13.75966605
ECCENTRICITY   = .0033379
INCLINATION    = 82.9290
RA_OF_ASC_NODE = 305.9844
ARG_OF_PERICENTER = 278.8448
MEAN_ANOMALY   = 195.6420

EPHEMERIS_TYPE = 0
CLASSIFICATION_TYPE = U
NORAD_CAT_ID   = 21876
ELEMENT_SET_NO = 999
REV_AT_EPOCH   = 70235
BSTAR          = .70290643E-4
MEAN_MOTION_DOT = .83E-6
MEAN_MOTION_DDOT = 0

CCSDS_OMM_VERS = 2.0
CREATION_DATE  = 
ORIGINATOR     = 

OBJECT_NAME    = SL-8 R/B
OBJECT_ID      = 1992-020B
CENTER_NAME    = EARTH
REF_FRAME      = TEME
TIME_SYSTEM    = UTC
MEAN_ELEMENT_THEORY = SGP/SGP4

EPOCH          = 2026-01-17T05:10:00.935040
MEAN_MOTION    = 13.75538681
ECCENTRICITY   = .00302437
INCLINATION    = 82.9296
RA_OF_ASC_NODE = 191.9726
ARG_OF_PERICENTER = 82.0084
MEAN_ANOMALY   = 90.9720

EPHEMERIS_TYPE = 0
CLASSIFICATION_TYPE = U
NORAD_CAT_ID   = 21938
ELEMENT_SET_NO = 999
REV_AT_EPOCH   = 69405
BSTAR          = .17616942E-3
MEAN_MOTION_DOT = .186E-5
MEAN_MOTION_DDOT = 0

CCSDS_OMM_VERS = 2.0
CREATION_DATE  = 
ORIGINATOR     = 

OBJECT_NAME    = USA 81
OBJECT_ID      = 1992-023A
CENTER_NAME    = EARTH
REF_FRAME      = TEME
TIME_SYSTEM    = UTC
MEAN_ELEMENT_THEORY = SGP/SGP4

EPOCH          = 2026-01-17T07:30:42.969312
MEAN_MOTION    = 14.32343060
ECCENTRICITY   = .00017919
INCLINATION    = 85.0104
RA_OF_ASC_NODE = 161.0616
ARG_OF_PERICENTER = 117.4321
MEAN_ANOMALY   = 242.7054

EPHEMERIS_TYPE = 0
CLASSIFICATION_TYPE = U
NORAD_CAT_ID   = 21949
ELEMENT_SET_NO = 999
REV_AT_EPOCH   = 8743
BSTAR          = .58103075E-4
MEAN_MOTION_DOT = .177E-5
MEAN_MOTION_DDOT = 0

CCSDS_OMM_VERS = 2.0
CREATION_DATE  = 
ORIGINATOR     = 

OBJECT_NAME    = COSMOS 2219
OBJECT_ID      = 1992-076A
CENTER_NAME    = EARTH
REF_FRAME      = TEME
TIME_SYSTEM    = UTC
MEAN_ELEMENT_THEORY = SGP/SGP4

EPOCH          = 2026-01-17T07:21:03.697056
MEAN_MOTION    = 14.14081402
ECCENTRICITY   = .00207611
INCLINATION    = 71.0618
RA_OF_ASC_NODE = 125.4864
ARG_OF_PERICENTER = 278.1547
MEAN_ANOMALY   = 81.7220

EPHEMERIS_TYPE = 0
CLASSIFICATION_TYPE = U
NORAD_CAT_ID   = 22219
ELEMENT_SET_NO = 999
REV_AT_EPOCH   = 71111
BSTAR          = -.20011522E-4
MEAN_MOTION_DOT = -.85E-6
MEAN_MOTION_DDOT = 0

CCSDS_OMM_VERS = 2.0
CREATION_DATE  = 
ORIGINATOR     = 

OBJECT_NAME    = SL-16 R/B
OBJECT_ID      = 1992-076B
CENTER_NAME    = EARTH
REF_FRAME      = TEME
TIME_SYSTEM    = UTC
MEAN_ELEMENT_THEORY = SGP/SGP4

EPOCH          = 2026-01-17T04:15:21.684384
MEAN_MOTION    = 14.16850190
ECCENTRICITY   = .00128421
INCLINATION    = 71.0013
RA_OF_ASC_NODE = 296.8839
ARG_OF_PERICENTER = 184.4631
MEAN_ANOMALY   = 332.1914

EPHEMERIS_TYPE = 0
CLASSIFICATION_TYPE = U
NORAD_CAT_ID   = 22220
ELEMENT_SET_NO = 999
REV_AT_EPOCH   = 71453
BSTAR          = .38826856E-4
MEAN_MOTION_DOT = .3E-6
MEAN_MOTION_DDOT = 0

CCSDS_OMM_VERS = 2.0
CREATION_DATE  = 
ORIGINATOR     = 

OBJECT_NAME    = COSMOS 2221
OBJECT_ID      = 1992-080A
CENTER_NAME    = EARTH
REF_FRAME      = TEME
TIME_SYSTEM    = UTC
MEAN_ELEMENT_THEORY = SGP/SGP4

EPOCH          = 2026-01-17T06:30:48.891744
MEAN_MOTION    = 14.95936550
ECCENTRICITY   = .00149964
INCLINATION    = 82.5060
RA_OF_ASC_NODE = 328.3130
ARG_OF_PERICENTER = 12.4799
MEAN_ANOMALY   = 347.6791

EPHEMERIS_TYPE = 0
CLASSIFICATION_TYPE = U
NORAD_CAT_ID   = 22236
ELEMENT_SET_NO = 999
REV_AT_EPOCH   = 77310
BSTAR          = .17130804E-3
MEAN_MOTION_DOT = .1947E-4
MEAN_MOTION_DDOT = 0

CCSDS_OMM_VERS = 2.0
CREATION_DATE  = 
ORIGINATOR     = 

OBJECT_NAME    = SL-16 R/B
OBJECT_ID      = 1992-093B
CENTER_NAME    = EARTH
REF_FRAME      = TEME
TIME_SYSTEM    = UTC
MEAN_ELEMENT_THEORY = SGP/SGP4

EPOCH          = 2026-01-17T06:59:47.047200
MEAN_MOTION    = 14.15438417
ECCENTRICITY   = .00038711
INCLINATION    = 71.0223
RA_OF_ASC_NODE = 112.1675
ARG_OF_PERICENTER = 354.1539
MEAN_ANOMALY   = 5.9538

EPHEMERIS_TYPE = 0
CLASSIFICATION_TYPE = U
NORAD_CAT_ID   = 22285
ELEMENT_SET_NO = 999
REV_AT_EPOCH   = 70588
BSTAR          = .17767759E-3
MEAN_MOTION_DOT = .299E-5
MEAN_MOTION_DDOT = 0

CCSDS_OMM_VERS = 2.0
CREATION_DATE  = 
ORIGINATOR     = 

OBJECT_NAME    = COSMOS 2228
OBJECT_ID      = 1992-094A
CENTER_NAME    = EARTH
REF_FRAME      = TEME
TIME_SYSTEM    = UTC
MEAN_ELEMENT_THEORY = SGP/SGP4

EPOCH          = 2026-01-17T06:06:27.170496
MEAN_MOTION    = 14.96918820
ECCENTRICITY   = .0019427
INCLINATION    = 82.5189
RA_OF_ASC_NODE = 286.5536
ARG_OF_PERICENTER = 112.3454
MEAN_ANOMALY   = 247.9830

EPHEMERIS_TYPE = 0
CLASSIFICATION_TYPE = U
NORAD_CAT_ID   = 22286
ELEMENT_SET_NO = 999
REV_AT_EPOCH   = 76836
BSTAR          = .14982873E-3
MEAN_MOTION_DOT = .1753E-4
MEAN_MOTION_DDOT = 0

