SL-14 R/B               
1 21423U 91042B   26017.16722895  .00000355  00000+0  41871-4 0  9991
2 21423  82.4926 268.5059 0018310  53.4297 306.8599 14.81775693845449
ERS-1                   
1 21574U 91050A   26017.32805628  .00000274  00000+0  10259-3 0  9996
2 21574  98.7897  34.2725 0031874 356.6314   3.4653 14.39397470808344
ARIANE 40 R/B           
1 21610U 91050F   26017.15433079  .00000248  00000+0  86970-4 0  9990
2 21610  98.2114  71.2985 0002453 210.6774 149.4273 14.42845541811569
INTERCOSMOS 25          
1 21819U 91086A   26017.13725680  .00000535  00000+0  10510-3 0  9995
2 21819  82.6087 341.1645 1486018 228.0402 118.4395 12.11857607490444
SL-8 R/B                
1 21876U 92008B   26017.32163071  .00000083  00000+0  70291-4 0  9995
2 21876  82.9290 305.9844 0033379 278.8448 195.6420 13.75966605702357
SL-8 R/B                
1 21938U 92020B   26017.21528860  .00000186  00000+0  17617-3 0  9993
2 21938  82.9296 191.9726 0030243  82.0084  90.9720 13.75538681694058
USA 81                  
1 21949U 92023A   26017.31299733  .00000177  00000+0  58103-4 0  9999
2 21949  85.0104 161.0616 0001791 117.4321 242.7054 14.32343060 87435
COSMOS 2219             
1 22219U 92076A   26017.30629279 -.00000085  00000+0 -20012-4 0  9997
2 22219  71.0618 125.4864 0020761 278.1547  81.7220 14.14081402711117
SL-16 R/B               
1 22220U 92076B   26017.17733431  .00000030  00000+0  38827-4 0  9991
2 22220  71.0013 296.8839 0012842 184.4631 332.1914 14.16850190714539
COSMOS 2221             
1 22236U 92080A   26017.27139921  .00001947  00000+0  17131-3 0  9990
2 22236  82.5060 328.3130 0014996  12.4799 347.6791 14.95936550773101
SL-16 R/B               
1 22285U 92093B   26017.29151675  .00000299  00000+0  17768-3 0  9995
2 22285  71.0223 112.1675 0003871 354.1539   5.9538 14.15438417705884
COSMOS 2228             
1 22286U 92094A   26017.25448114  .00001753  00000+0  14983-3 0  9992
2 22286  82.5189 286.5536 0019427 112.3454 247.9830 14.96918820768364
